TDRS 3                  
1 19548U 88091B   26175.21621802 -.00000301  00000+0  00000+0 0  9999
2 19548  12.5960 340.9585 0037974 356.7788 323.6499  1.00271480125456
FLTSATCOM 8 (USA 46)    
1 20253U 89077A   26174.87824837 -.00000370  00000+0  00000+0 0  9999
2 20253  12.4196 351.1228 0004053  58.8942 303.9633  1.00274034260632
SKYNET 4C               
1 20776U 90079A   26162.20198486  .00000132  00000+0  00000+0 0  9996
2 20776  13.3424 349.8525 0002400  96.2313 279.5534  1.00274127130831
TDRS 5                  
1 21639U 91054B   26175.20849497  .00000081  00000+0  00000+0 0  9991
2 21639  14.0700 353.7293 0005919 272.9037 273.1961  1.00278084127785
TDRS 6                  
1 22314U 93003B   26176.21785074 -.00000297  00000+0  00000+0 0  9990
2 22314  14.1829 356.9986 0008492 179.5286 129.3738  1.00268431122481
UFO 2 (USA 95)          
1 22787U 93056A   26176.17420735  .00000124  00000+0  00000+0 0  9995
2 22787  11.8973   3.5100 0004598   8.8734 352.2707  1.00272467118636
USA 99 (MILSTAR-1 1)    
1 22988U 94009A   26175.94700000 -.00000227  00000+0  00000+0 0  9992
2 22988  17.6385  27.6261 0000588 207.4672 340.6467  0.98724102 33025
UFO 4 (USA 108)         
1 23467U 95003A   26175.81850398 -.00000022  00000+0  00000+0 0  9995
2 23467   9.6939  13.2032 0002953  77.4112 289.2045  1.00273455115039
TDRS 7                  
1 23613U 95035B   26175.97218458 -.00000241  00000+0  00000+0 0  9998
2 23613  13.3739 348.1358 0011858  81.7682 282.1641  1.00279226113334
USA 115 (MILSTAR-1 2)   
1 23712U 95060A   26176.01225108 -.00000208  00000+0  00000+0 0  9995
2 23712  14.0755   3.6920 0002010 132.3204  49.9224  1.00364344 32962
INMARSAT 3-F1           
1 23839U 96020A   26176.14802824 -.00000066  00000+0  00000+0 0  9994
2 23839  10.6169  46.5609 0003822  64.2039 112.2286  0.99978032110336
INMARSAT 3-F2           
1 24307U 96053A   26174.76077458 -.00000303  00000+0  00000+0 0  9998
2 24307   9.8711  53.8690 0006515  36.0978 238.8301  1.00001315108987
INMARSAT 3-F3           
1 24674U 96070A   26174.82102530  .00000130  00000+0  00000+0 0  9998
2 24674  10.3319  49.5894 0003134  37.2361 156.3639  0.99985595107970
USA 134                 
1 25019U 97065A   26176.14620823 -.00000064  00000+0  00000+0 0  9991
2 25019  12.7936  21.6646 0003133 345.9046 205.9654  1.00269527 33035
INMARSAT 3-F5           
1 25153U 98006B   26176.08586431 -.00000290  00000+0  00000+0 0  9996
2 25153   9.7108  53.1828 0004325  34.7192 162.2648  1.00273531103971
ABS-6                   
1 25924U 99053A   26175.21572216 -.00000112  00000+0  00000+0 0  9998
2 25924   0.0345 284.4349 0003676 173.0958  51.5304  1.00269854 97914
UFO 10 (USA 146)        
1 25967U 99063A   26175.87880395 -.00000189  00000+0  00000+0 0  9992
2 25967   9.8385  27.1711 0001567  64.6968 114.5412  1.00269529 97425
ASIASTAR                
1 26107U 00016A   26176.11799999 -.00000333  00000+0  00000+0 0  9997
2 26107   9.1480  58.0701 0004600  31.2013 331.4842  1.00273435 96006
USA 149 (DSP 20)        
1 26356U 00024A   26175.18450052  .00000091  00000+0  00000+0 0  9992
2 26356  13.1758  11.8048 0001789 323.2798 198.3966  1.00278668 32982
TDRS 8                  
1 26388U 00034A   26175.11571288 -.00000199  00000+0  00000+0 0  9996
2 26388  12.6940  31.2621 0004889  23.2171 344.1519  1.00276386 95252
NSS-11                  
1 26554U 00059A   26176.13211566  .00000033  00000+0  00000+0 0  9997
2 26554   2.1474  81.3054 0003090   5.0654  50.4554  1.00272230 41370
USA 153                 
1 26575U 00065A   26174.95739284 -.00000328  00000+0  00000+0 0  9995
2 26575  11.6362  35.3664 0003087  47.7540 308.0828  1.00268576 32995
AMC-6                   
1 26580U 00067A   26176.14182235  .00000098  00000+0  00000+0 0  9997
2 26580   0.1728  83.4233 0003880  19.7642  86.0978  1.00271993 93970
USA 157 (MILSTAR-2 2)   
1 26715U 01009A   26175.18217213  .00000107  00000+0  00000+0 0  9993
2 26715  11.5505  19.7238 0039302 177.1222 351.1307  1.00278822 33016
INTELSAT 902 (IS-902)   
1 26900U 01039A   26176.15852061 -.00000279  00000+0  00000+0 0  9997
2 26900   6.1364  71.6864 0004220  22.5602 186.0184  1.00272034 90776
USA 164 (MILSTAR-2 3)   
1 27168U 02001A   26175.00206666  .00000094  00000+0  00000+0 0  9995
2 27168  11.1879  21.8685 0099786   8.5157 261.4678  1.00269507 33020
INTELSAT 904 (IS-904)   
1 27380U 02007A   26176.19917273 -.00000222  00000+0  00000+0 0  9995
2 27380   6.9401  69.0905 0006533   9.6551 234.8017  1.00273402 51846
DIRECTV 5 (TEMPO 1)     
1 27426U 02023A   26176.14672823 -.00000052  00000+0  00000+0 0  9999
2 27426   4.8983  75.2153 0003506  22.9203 117.8738  1.00272949 88207
INTELSAT 905 (IS-905)   
1 27438U 02027A   26174.78686591  .00000095  00000+0  00000+0 0  9997
2 27438   6.7705  69.7228 0004117  25.1578 323.1299  1.00273149 51424
GALAXY 3C (G-3C)        
1 27445U 02030A   26176.03978844 -.00000146  00000+0  00000+0 0  9992
2 27445   3.7528  77.8806 0001934  27.0363  87.7469  1.00272136 46578
INTELSAT 906 (IS-906)   
1 27513U 02041A   26176.18122740  .00000017  00000+0  00000+0 0  9998
2 27513   5.8222  72.8229 0004258   5.8574 324.0266  1.00271821 87108
