OBJECT_NAME,OBJECT_ID,EPOCH,MEAN_MOTION,ECCENTRICITY,INCLINATION,RA_OF_ASC_NODE,ARG_OF_PERICENTER,MEAN_ANOMALY,EPHEMERIS_TYPE,CLASSIFICATION_TYPE,NORAD_CAT_ID,ELEMENT_SET_NO,REV_AT_EPOCH,BSTAR,MEAN_MOTION_DOT,MEAN_MOTION_DDOT
TDRS 3,1988-091B,2026-06-24T05:11:21.236928,1.00271480,.00379743,12.5960,340.9585,356.7788,323.6499,0,U,19548,999,12545,0,-.301E-5,0
FLTSATCOM 8 (USA 46),1989-077A,2026-06-23T21:04:40.659168,1.00274034,.00040539,12.4196,351.1228,58.8942,303.9633,0,U,20253,999,26063,0,-.37E-5,0
SKYNET 4C,1990-079A,2026-06-11T04:50:51.491904,1.00274127,.00024002,13.3424,349.8525,96.2313,279.5534,0,U,20776,999,13083,0,.132E-5,0
TDRS 5,1991-054B,2026-06-24T05:00:13.965408,1.00278084,.00059193,14.0700,353.7293,272.9037,273.1961,0,U,21639,999,12778,0,.81E-6,0
TDRS 6,1993-003B,2026-06-25T05:13:42.303936,1.00268431,.0008492,14.1829,356.9986,179.5286,129.3738,0,U,22314,999,12248,0,-.297E-5,0
UFO 2 (USA 95),1993-056A,2026-06-25T04:10:51.515040,1.00272467,.0004598,11.8973,3.5100,8.8734,352.2707,0,U,22787,999,11863,0,.124E-5,0
USA 99 (MILSTAR-1 1),1994-009A,2026-06-24T22:43:40.800000,0.98724102,.0000588,17.6385,27.6261,207.4672,340.6467,0,U,22988,999,3302,0,-.227E-5,0
UFO 4 (USA 108),1995-003A,2026-06-24T19:38:38.743872,1.00273455,.0002953,9.6939,13.2032,77.4112,289.2045,0,U,23467,999,11503,0,-.22E-6,0
TDRS 7,1995-035B,2026-06-24T23:19:56.747712,1.00279226,.0011858,13.3739,348.1358,81.7682,282.1641,0,U,23613,999,11333,0,-.241E-5,0
USA 115 (MILSTAR-1 2),1995-060A,2026-06-25T00:17:38.493312,1.00364344,.000201,14.0755,3.6920,132.3204,49.9224,0,U,23712,999,3296,0,-.208E-5,0
INMARSAT 3-F1,1996-020A,2026-06-25T03:33:09.639936,0.99978032,.0003822,10.6169,46.5609,64.2039,112.2286,0,U,23839,999,11033,0,-.66E-6,0
INMARSAT 3-F2,1996-053A,2026-06-23T18:15:30.923712,1.00001315,.0006515,9.8711,53.8690,36.0978,238.8301,0,U,24307,999,10898,0,-.303E-5,0
INMARSAT 3-F3,1996-070A,2026-06-23T19:42:16.585920,0.99985595,.00031343,10.3319,49.5894,37.2361,156.3639,0,U,24674,999,10797,0,.13E-5,0
USA 134,1997-065A,2026-06-25T03:30:32.391072,1.00269527,.0003133,12.7936,21.6646,345.9046,205.9654,0,U,25019,999,3303,0,-.64E-6,0
INMARSAT 3-F5,1998-006B,2026-06-25T02:03:38.676384,1.00273531,.0004325,9.7108,53.1828,34.7192,162.2648,0,U,25153,999,10397,0,-.29E-5,0
ABS-6,1999-053A,2026-06-24T05:10:38.394624,1.00269854,.00036763,0.0345,284.4349,173.0958,51.5304,0,U,25924,999,9791,0,-.112E-5,0
UFO 10 (USA 146),1999-063A,2026-06-24T21:05:28.661280,1.00269529,.0001567,9.8385,27.1711,64.6968,114.5412,0,U,25967,999,9742,0,-.189E-5,0
ASIASTAR,2000-016A,2026-06-25T02:49:55.199136,1.00273435,.00046,9.1480,58.0701,31.2013,331.4842,0,U,26107,999,9600,0,-.333E-5,0
USA 149 (DSP 20),2000-024A,2026-06-24T04:25:40.844928,1.00278668,.00017899,13.1758,11.8048,323.2798,198.3966,0,U,26356,999,3298,0,.91E-6,0
TDRS 8,2000-034A,2026-06-24T02:46:37.592832,1.00276386,.00048896,12.6940,31.2621,23.2171,344.1519,0,U,26388,999,9525,0,-.199E-5,0
NSS-11,2000-059A,2026-06-25T03:10:14.793024,1.00272230,.000309,2.1474,81.3054,5.0654,50.4554,0,U,26554,999,4137,0,.33E-6,0
USA 153,2000-065A,2026-06-23T22:58:38.741376,1.00268576,.0003087,11.6362,35.3664,47.7540,308.0828,0,U,26575,999,3299,0,-.328E-5,0
AMC-6,2000-067A,2026-06-25T03:24:13.451040,1.00271993,.000388,0.1728,83.4233,19.7642,86.0978,0,U,26580,999,9397,0,.98E-6,0
USA 157 (MILSTAR-2 2),2001-009A,2026-06-24T04:22:19.672032,1.00278822,.00393024,11.5505,19.7238,177.1222,351.1307,0,U,26715,999,3301,0,.107E-5,0
INTELSAT 902 (IS-902),2001-039A,2026-06-25T03:48:16.180704,1.00272034,.000422,6.1364,71.6864,22.5602,186.0184,0,U,26900,999,9077,0,-.279E-5,0
USA 164 (MILSTAR-2 3),2002-001A,2026-06-24T00:02:58.559424,1.00269507,.00997868,11.1879,21.8685,8.5157,261.4678,0,U,27168,999,3302,0,.94E-6,0
INTELSAT 904 (IS-904),2002-007A,2026-06-25T04:46:48.523872,1.00273402,.0006533,6.9401,69.0905,9.6551,234.8017,0,U,27380,999,5184,0,-.222E-5,0
DIRECTV 5 (TEMPO 1),2002-023A,2026-06-25T03:31:17.319072,1.00272949,.0003506,4.8983,75.2153,22.9203,117.8738,0,U,27426,999,8820,0,-.52E-6,0
INTELSAT 905 (IS-905),2002-027A,2026-06-23T18:53:05.214624,1.00273149,.00041178,6.7705,69.7228,25.1578,323.1299,0,U,27438,999,5142,0,.95E-6,0
GALAXY 3C (G-3C),2002-030A,2026-06-25T00:57:17.721216,1.00272136,.0001934,3.7528,77.8806,27.0363,87.7469,0,U,27445,999,4657,0,-.146E-5,0
INTELSAT 906 (IS-906),2002-041A,2026-06-25T04:20:58.047360,1.00271821,.0004258,5.8222,72.8229,5.8574,324.0266,0,U,27513,999,8710,0,.17E-6,0
